[{"OBJECT_NAME":"STARLINK-31075","OBJECT_ID":"2023-200F","EPOCH":"2026-03-08T08:38:08.441952","MEAN_MOTION":15.26747945,"ECCENTRICITY":0.00017182,"INCLINATION":43.0013,"RA_OF_ASC_NODE":175.8265,"ARG_OF_PERICENTER":190.316,"MEAN_ANOMALY":169.7657,"EPHEMERIS_TYPE":0,"CLASSIFICATION_TYPE":"U","NORAD_CAT_ID":58594,"ELEMENT_SET_NO":999,"REV_AT_EPOCH":12341,"BSTAR":2.009507e-5,"MEAN_MOTION_DOT":2.79e-6,"MEAN_MOTION_DDOT":0},{"OBJECT_NAME":"OBJECT E","OBJECT_ID":"2024-174E","EPOCH":"2026-03-09T23:40:24.424320","MEAN_MOTION":15.26241811,"ECCENTRICITY":0.00122518,"INCLINATION":97.4515,"RA_OF_ASC_NODE":80.1669,"ARG_OF_PERICENTER":217.7524,"MEAN_ANOMALY":142.2856,"EPHEMERIS_TYPE":0,"CLASSIFICATION_TYPE":"U","NORAD_CAT_ID":61242,"ELEMENT_SET_NO":999,"REV_AT_EPOCH":8070,"BSTAR":0.00031155901,"MEAN_MOTION_DOT":8.013e-5,"MEAN_MOTION_DDOT":0}]
